{
 "generated_at": "2026-06-15T10:55:27Z",
 "sources": [
  {
   "name": "CelesTrak",
   "url": "https://celestrak.org/NORAD/elements/",
   "license": "frei verfügbar; Attribution. Ursprünglich USSPACECOM/Space-Track."
  },
  {
   "name": "GCAT (J. McDowell, planet4589.org)",
   "url": "https://planet4589.org/space/gcat/",
   "license": "CC-BY 4.0"
  }
 ],
 "satellites": [
  {
   "norad": 68485,
   "name": "CAPELLA-20 (ACADIA-10)",
   "intl": "2026-067BX",
   "group": "sar",
   "gcat": {
    "class": "B",
    "category": "IMG-R",
    "owner": "CAPSP",
    "state": "US"
   },
   "omm": {
    "OBJECT_NAME": "CAPELLA-20 (ACADIA-10)",
    "OBJECT_ID": "2026-067BX",
    "EPOCH": "2026-06-15T03:34:42.335904",
    "MEAN_MOTION": 14.92567809,
    "ECCENTRICITY": 0.000113,
    "INCLINATION": 97.7572,
    "RA_OF_ASC_NODE": 124.4674,
    "ARG_OF_PERICENTER": 44.4229,
    "MEAN_ANOMALY": 315.708,
    "EPHEMERIS_TYPE": 0,
    "CLASSIFICATION_TYPE": "U",
    "NORAD_CAT_ID": 68485,
    "ELEMENT_SET_NO": 999,
    "REV_AT_EPOCH": 1142,
    "BSTAR": 0.00060281,
    "MEAN_MOTION_DOT": 0.00006145,
    "MEAN_MOTION_DDOT": 0
   }
  },
  {
   "norad": 40718,
   "name": "CARBONITE 1 (CBNT-1)",
   "intl": "2015-032D",
   "group": "resource",
   "gcat": {
    "class": "B",
    "category": "IMG",
    "owner": "SSTLA",
    "state": "UK"
   },
   "omm": {
    "OBJECT_NAME": "CARBONITE 1 (CBNT-1)",
    "OBJECT_ID": "2015-032D",
    "EPOCH": "2026-06-15T03:49:09.708096",
    "MEAN_MOTION": 14.83579937,
    "ECCENTRICITY": 0.0013309,
    "INCLINATION": 97.6499,
    "RA_OF_ASC_NODE": 344.3105,
    "ARG_OF_PERICENTER": 305.4368,
    "MEAN_ANOMALY": 54.5603,
    "EPHEMERIS_TYPE": 0,
    "CLASSIFICATION_TYPE": "U",
    "NORAD_CAT_ID": 40718,
    "ELEMENT_SET_NO": 999,
    "REV_AT_EPOCH": 58904,
    "BSTAR": 0.00011235,
    "MEAN_MOTION_DOT": 0.00000876,
    "MEAN_MOTION_DDOT": 0
   }
  },
  {
   "norad": 67397,
   "name": "CARBSAR",
   "intl": "2026-004AL",
   "group": "sar",
   "gcat": {
    "class": "B",
    "category": "IMG-R",
    "owner": "SSTL",
    "state": "UK"
   },
   "omm": {
    "OBJECT_NAME": "CARBSAR",
    "OBJECT_ID": "2026-004AL",
    "EPOCH": "2026-06-15T00:04:34.633632",
    "MEAN_MOTION": 15.19560092,
    "ECCENTRICITY": 0.0005283,
    "INCLINATION": 97.4531,
    "RA_OF_ASC_NODE": 165.2002,
    "ARG_OF_PERICENTER": 5.2859,
    "MEAN_ANOMALY": 354.843,
    "EPHEMERIS_TYPE": 0,
    "CLASSIFICATION_TYPE": "U",
    "NORAD_CAT_ID": 67397,
    "ELEMENT_SET_NO": 999,
    "REV_AT_EPOCH": 2343,
    "BSTAR": 0.00028578,
    "MEAN_MOTION_DOT": 0.00006012,
    "MEAN_MOTION_DDOT": 0
   }
  },
  {
   "norad": 32783,
   "name": "CARTOSAT-2A",
   "intl": "2008-021A",
   "group": "resource",
   "gcat": {
    "class": "D",
    "category": "IMG",
    "owner": "ISRO",
    "state": "IN"
   },
   "omm": {
    "OBJECT_NAME": "CARTOSAT-2A",
    "OBJECT_ID": "2008-021A",
    "EPOCH": "2026-06-15T03:39:35.989632",
    "MEAN_MOTION": 14.79235715,
    "ECCENTRICITY": 0.0013092,
    "INCLINATION": 97.7638,
    "RA_OF_ASC_NODE": 214.9303,
    "ARG_OF_PERICENTER": 114.8372,
    "MEAN_ANOMALY": 245.4203,
    "EPHEMERIS_TYPE": 0,
    "CLASSIFICATION_TYPE": "U",
    "NORAD_CAT_ID": 32783,
    "ELEMENT_SET_NO": 999,
    "REV_AT_EPOCH": 97850,
    "BSTAR": 0.000090118,
    "MEAN_MOTION_DOT": 0.0000062,
    "MEAN_MOTION_DDOT": 0
   }
  },
  {
   "norad": 36795,
   "name": "CARTOSAT-2B",
   "intl": "2010-035A",
   "group": "resource",
   "gcat": {
    "class": "D",
    "category": "IMG",
    "owner": "ISRO",
    "state": "IN"
   },
   "omm": {
    "OBJECT_NAME": "CARTOSAT-2B",
    "OBJECT_ID": "2010-035A",
    "EPOCH": "2026-06-15T04:10:55.138656",
    "MEAN_MOTION": 14.78660427,
    "ECCENTRICITY": 0.0011072,
    "INCLINATION": 97.9957,
    "RA_OF_ASC_NODE": 216.7368,
    "ARG_OF_PERICENTER": 190.3072,
    "MEAN_ANOMALY": 169.7913,
    "EPHEMERIS_TYPE": 0,
    "CLASSIFICATION_TYPE": "U",
    "NORAD_CAT_ID": 36795,
    "ELEMENT_SET_NO": 999,
    "REV_AT_EPOCH": 85955,
    "BSTAR": 0.00014104,
    "MEAN_MOTION_DOT": 0.00000982,
    "MEAN_MOTION_DDOT": 0
   }
  },
  {
   "norad": 41599,
   "name": "CARTOSAT-2C",
   "intl": "2016-040A",
   "group": "resource",
   "gcat": {
    "class": "D",
    "category": "IMG",
    "owner": "ISRO",
    "state": "IN"
   },
   "omm": {
    "OBJECT_NAME": "CARTOSAT-2C",
    "OBJECT_ID": "2016-040A",
    "EPOCH": "2026-06-15T03:36:34.846848",
    "MEAN_MOTION": 15.19305911,
    "ECCENTRICITY": 0.0010451,
    "INCLINATION": 97.4491,
    "RA_OF_ASC_NODE": 226.1561,
    "ARG_OF_PERICENTER": 137.4868,
    "MEAN_ANOMALY": 222.7177,
    "EPHEMERIS_TYPE": 0,
    "CLASSIFICATION_TYPE": "U",
    "NORAD_CAT_ID": 41599,
    "ELEMENT_SET_NO": 999,
    "REV_AT_EPOCH": 55340,
    "BSTAR": 0.00021935,
    "MEAN_MOTION_DOT": 0.00004568,
    "MEAN_MOTION_DDOT": 0
   }
  },
  {
   "norad": 41948,
   "name": "CARTOSAT-2D",
   "intl": "2017-008A",
   "group": "resource",
   "gcat": {
    "class": "D",
    "category": "IMG",
    "owner": "ISRO",
    "state": "IN"
   },
   "omm": {
    "OBJECT_NAME": "CARTOSAT-2D",
    "OBJECT_ID": "2017-008A",
    "EPOCH": "2026-06-15T04:22:51.824928",
    "MEAN_MOTION": 15.19321882,
    "ECCENTRICITY": 0.0003792,
    "INCLINATION": 97.4112,
    "RA_OF_ASC_NODE": 225.5257,
    "ARG_OF_PERICENTER": 238.3709,
    "MEAN_ANOMALY": 121.7156,
    "EPHEMERIS_TYPE": 0,
    "CLASSIFICATION_TYPE": "U",
    "NORAD_CAT_ID": 41948,
    "ELEMENT_SET_NO": 999,
    "REV_AT_EPOCH": 51727,
    "BSTAR": 0.00022676,
    "MEAN_MOTION_DOT": 0.00004722,
    "MEAN_MOTION_DDOT": 0
   }
  },
  {
   "norad": 42767,
   "name": "CARTOSAT-2E",
   "intl": "2017-036C",
   "group": "resource",
   "gcat": {
    "class": "D",
    "category": "IMG",
    "owner": "ISRO",
    "state": "IN"
   },
   "omm": {
    "OBJECT_NAME": "CARTOSAT-2E",
    "OBJECT_ID": "2017-036C",
    "EPOCH": "2026-06-15T04:48:30.888864",
    "MEAN_MOTION": 15.19242643,
    "ECCENTRICITY": 0.0002581,
    "INCLINATION": 97.4283,
    "RA_OF_ASC_NODE": 226.0353,
    "ARG_OF_PERICENTER": 331.318,
    "MEAN_ANOMALY": 28.7912,
    "EPHEMERIS_TYPE": 0,
    "CLASSIFICATION_TYPE": "U",
    "NORAD_CAT_ID": 42767,
    "ELEMENT_SET_NO": 999,
    "REV_AT_EPOCH": 49784,
    "BSTAR": 0.00020495,
    "MEAN_MOTION_DOT": 0.00004251,
    "MEAN_MOTION_DDOT": 0
   }
  },
  {
   "norad": 43111,
   "name": "CARTOSAT-2F",
   "intl": "2018-004A",
   "group": "resource",
   "gcat": {
    "class": "D",
    "category": "IMG",
    "owner": "ISRO",
    "state": "IN"
   },
   "omm": {
    "OBJECT_NAME": "CARTOSAT-2F",
    "OBJECT_ID": "2018-004A",
    "EPOCH": "2026-06-15T03:59:55.908384",
    "MEAN_MOTION": 15.19204175,
    "ECCENTRICITY": 0.0000594,
    "INCLINATION": 97.4797,
    "RA_OF_ASC_NODE": 225.8205,
    "ARG_OF_PERICENTER": 226.6835,
    "MEAN_ANOMALY": 133.435,
    "EPHEMERIS_TYPE": 0,
    "CLASSIFICATION_TYPE": "U",
    "NORAD_CAT_ID": 43111,
    "ELEMENT_SET_NO": 999,
    "REV_AT_EPOCH": 46702,
    "BSTAR": 0.00024379,
    "MEAN_MOTION_DOT": 0.00005063,
    "MEAN_MOTION_DDOT": 0
   }
  },
  {
   "norad": 44804,
   "name": "CARTOSAT-3",
   "intl": "2019-081A",
   "group": "resource",
   "gcat": {
    "class": "D",
    "category": "IMG",
    "owner": "ISRO",
    "state": "IN"
   },
   "omm": {
    "OBJECT_NAME": "CARTOSAT-3",
    "OBJECT_ID": "2019-081A",
    "EPOCH": "2026-06-15T04:21:16.841088",
    "MEAN_MOTION": 15.19271652,
    "ECCENTRICITY": 0.0013033,
    "INCLINATION": 97.4312,
    "RA_OF_ASC_NODE": 228.0802,
    "ARG_OF_PERICENTER": 155.402,
    "MEAN_ANOMALY": 204.7839,
    "EPHEMERIS_TYPE": 0,
    "CLASSIFICATION_TYPE": "U",
    "NORAD_CAT_ID": 44804,
    "ELEMENT_SET_NO": 999,
    "REV_AT_EPOCH": 36316,
    "BSTAR": 0.00024171,
    "MEAN_MOTION_DOT": 0.0000504,
    "MEAN_MOTION_DDOT": 0
   }
  }
 ]
}
