CARTOSAT-2A             
1 32783U 08021A   26166.15249988  .00000620  00000+0  90118-4 0  9991
2 32783  97.7638 214.9303 0013092 114.8372 245.4203 14.79235715978501
CARTOSAT-2B             
1 36795U 10035A   26166.17424929  .00000982  00000+0  14104-3 0  9999
2 36795  97.9957 216.7368 0011072 190.3072 169.7913 14.78660427859557
CARBONITE 1 (CBNT-1)    
1 40718U 15032D   26166.15914014  .00000876  00000+0  11235-3 0  9992
2 40718  97.6499 344.3105 0013309 305.4368  54.5603 14.83579937589046
CARTOSAT-2C             
1 41599U 16040A   26166.15040332  .00004568  00000+0  21935-3 0  9993
2 41599  97.4491 226.1561 0010451 137.4868 222.7177 15.19305911553405
CARTOSAT-2D             
1 41948U 17008A   26166.18254427  .00004722  00000+0  22676-3 0  9996
2 41948  97.4112 225.5257 0003792 238.3709 121.7156 15.19321882517278
CARTOSAT-2E             
1 42767U 17036C   26166.20035751  .00004251  00000+0  20495-3 0  9991
2 42767  97.4283 226.0353 0002581 331.3180  28.7912 15.19242643497845
CARTOSAT-2F             
1 43111U 18004A   26166.16661931  .00005063  00000+0  24379-3 0  9998
2 43111  97.4797 225.8205 0000594 226.6835 133.4350 15.19204175467022
CARTOSAT-3              
1 44804U 19081A   26166.18144492  .00005040  00000+0  24171-3 0  9999
2 44804  97.4312 228.0802 0013033 155.4020 204.7839 15.19271652363168
CARBSAR                 
1 67397U 26004AL  26166.00317863  .00006012  00000+0  28578-3 0  9994
2 67397  97.4531 165.2002 0005283   5.2859 354.8430 15.19560092 23433
CAPELLA-20 (ACADIA-10)  
1 68485U 26067BX  26166.14910111  .00006145  00000+0  60281-3 0  9996
2 68485  97.7572 124.4674 0001130  44.4229 315.7080 14.92567809 11421
